OBJECT_NAME,OBJECT_ID,EPOCH,MEAN_MOTION,ECCENTRICITY,INCLINATION,RA_OF_ASC_NODE,ARG_OF_PERICENTER,MEAN_ANOMALY,EPHEMERIS_TYPE,CLASSIFICATION_TYPE,NORAD_CAT_ID,ELEMENT_SET_NO,REV_AT_EPOCH,BSTAR,MEAN_MOTION_DOT,MEAN_MOTION_DDOT
FENGYUN 1C DEB,1999-025DZR,2024-12-28T18:43:46.604064,14.42238898,.0262461,98.1883,351.5441,110.7811,252.1709,0,U,36695,999,84535,.41866E-3,.2041E-4,0
FENGYUN 1C DEB,1999-025DZS,2024-12-26T05:29:57.348672,14.32942161,.0025236,98.9892,348.8643,283.4171,76.4199,0,U,36696,999,84136,.4819E-2,.13198E-3,0
FENGYUN 1C DEB,1999-025DZV,2024-12-29T17:45:42.295104,14.23584616,.0095828,98.5442,2.6179,64.7437,296.3636,0,U,36699,999,68374,.71123E-3,.1657E-4,0
FENGYUN 1C DEB,1999-025DZX,2024-12-31T06:28:37.224192,13.68635031,.0267675,102.7477,203.3016,318.3325,39.7689,0,U,36701,999,56394,.67187E-2,.7348E-4,0
FENGYUN 1C DEB,1999-025EAD,2024-12-30T08:26:23.782560,14.15730551,.0049736,98.7880,50.5079,35.9868,324.4638,0,U,36707,999,59161,.22829E-2,.4492E-4,0
FENGYUN 1C DEB,1999-025EAG,2024-12-29T21:45:08.152704,14.44827743,.0073912,98.4137,58.6245,159.3833,201.0368,0,U,36710,999,85348,.40744E-2,.14632E-3,0
FENGYUN 1C DEB,1999-025EAH,2024-12-30T12:53:55.487328,14.32830750,.01151,100.8033,290.0703,86.3656,275.0675,0,U,36711,999,83675,.76413E-2,.2245E-3,0
FENGYUN 1C DEB,1999-025EAK,2024-12-31T13:25:00.293952,15.31046319,.0080303,98.4222,266.9316,185.6844,174.3491,0,U,36713,999,91662,.45269E-2,.152581E-2,0
FENGYUN 1C DEB,1999-025EAN,2024-12-31T14:11:06.254304,13.88071066,.0150303,99.2238,283.4971,80.4357,281.3748,0,U,36716,999,58128,.72573E-3,.904E-5,0
FENGYUN 1C DEB,1999-025EAW,2024-12-31T11:33:38.888640,14.20935497,.0109132,99.4830,5.5851,97.1904,55.1863,0,U,36724,999,52546,.49353E-2,.11317E-3,0
FENGYUN 1C DEB,1999-025EBB,2024-12-31T16:59:13.672032,14.09810433,.0046803,98.6753,354.1581,156.2875,204.0467,0,U,36729,999,82375,.78565E-3,.1353E-4,0
FENGYUN 1C DEB,1999-025EBG,2024-12-31T08:19:42.896928,14.22401680,.0038134,99.0781,36.3837,136.0325,224.3896,0,U,36734,999,77803,.41853E-2,.9353E-4,0
FENGYUN 1C DEB,1999-025EBJ,2024-12-29T10:50:27.531456,14.21823377,.0062608,98.8282,71.0455,67.1480,293.6293,0,U,36736,999,83659,.35739E-2,.7992E-4,0
FENGYUN 1C DEB,1999-025EBR,2024-12-31T08:56:19.398336,14.26011291,.0050088,98.6967,51.3552,302.6233,57.0118,0,U,36743,999,55795,.36288E-2,.8741E-4,0
FENGYUN 1C DEB,1999-025EBS,2024-12-31T14:54:05.876640,14.11313884,.0091752,99.1627,58.8877,136.3688,224.4784,0,U,36986,999,76856,.53477E-2,.10022E-3,0
FENGYUN 1C DEB,1999-025EBT,2024-12-30T07:17:13.094592,13.45401732,.0319724,100.8548,212.1187,150.0608,211.9235,0,U,36987,999,56204,.14027E-2,.108E-4,0
FENGYUN 1C DEB,1999-025ECA,2024-12-31T16:22:49.857600,13.90573630,.0115983,98.5965,347.8251,164.6851,195.7868,0,U,36994,999,76097,.37502E-3,.454E-5,0
FENGYUN 1C DEB,1999-025ECB,2024-12-31T11:21:25.631712,14.04747558,.0038646,98.3848,266.1041,211.0035,148.8853,0,U,36995,999,58695,.11031E-3,.139E-5,0
FENGYUN 1C DEB,1999-025ECC,2024-12-31T17:59:59.841888,14.08786474,.0262621,98.1921,182.4539,265.3233,103.6811,0,U,36996,999,54815,.44258E-2,.10465E-3,0
FENGYUN 1C DEB,1999-025ECK,2024-12-31T08:50:55.629024,13.95350523,.0097011,98.8810,37.0176,37.4923,335.2522,0,U,37003,999,55825,.1618E-2,.2238E-4,0
FENGYUN 1C DEB,1999-025ECN,2024-12-30T07:42:11.298240,14.45339603,.0267579,99.3370,212.4970,196.2617,162.9861,0,U,37006,999,60089,.22501E-2,.12276E-3,0
FENGYUN 1C DEB,1999-025ECQ,2024-12-31T18:05:38.980032,14.06492290,.0063694,99.1132,116.4197,141.9162,218.6533,0,U,37008,999,55448,.39249E-2,.6573E-4,0
FENGYUN 1C DEB,1999-025ECZ,2024-12-31T00:55:25.502304,14.34867448,.0300898,98.7617,296.6244,313.7315,43.9306,0,U,37017,999,56178,.46592E-2,.22136E-3,0
FENGYUN 1C DEB,1999-025EDD,2024-12-30T21:50:44.156256,14.29879152,.0181986,98.4105,27.8758,199.0630,285.0206,0,U,37021,999,65093,.21579E-2,.6606E-4,0
FENGYUN 1C DEB,1999-025EDL,2024-12-30T11:18:54.592416,14.19081153,.0036723,99.2621,250.8852,6.2774,353.8853,0,U,37028,999,55543,.50566E-2,.10607E-3,0
FENGYUN 1C DEB,1999-025EDU,2024-12-31T05:56:00.142368,14.02986474,.0123696,98.6994,7.7103,306.7462,52.2398,0,U,37036,999,58888,.11227E-2,.1822E-4,0
FENGYUN 1C DEB,1999-025EEC,2024-12-30T02:11:48.636096,13.64050925,.0528542,98.9489,128.6508,357.5609,2.2976,0,U,37044,999,79105,.30146E-2,.6221E-4,0
FENGYUN 1C DEB,1999-025EEE,2024-12-31T20:02:05.115552,14.23159964,.0050576,98.5636,24.3021,233.7489,125.9010,0,U,37046,999,59258,.25096E-2,.5705E-4,0
FENGYUN 1C DEB,1999-025EEG,2024-12-30T23:07:28.269696,13.64672820,.0254633,98.9310,249.2594,336.5757,33.4210,0,U,37048,999,57439,.85389E-3,.816E-5,0
FENGYUN 1C DEB,1999-025EEN,2024-12-30T05:39:48.276288,14.18734929,.0101884,98.5185,354.4092,30.9387,329.7738,0,U,37054,999,83471,.10918E-2,.2346E-4,0
