FENGYUN 1C DEB          
1 36695U 99025DZR 24363.78040051  .00002041  00000+0  41866-3 0  9991
2 36695  98.1883 351.5441 0262461 110.7811 252.1709 14.42238898845351
FENGYUN 1C DEB          
1 36696U 99025DZS 24361.22913598  .00013198  00000+0  48190-2 0  9995
2 36696  98.9892 348.8643 0025236 283.4171  76.4199 14.32942161841368
FENGYUN 1C DEB          
1 36699U 99025DZV 24364.74007286  .00001657  00000+0  71123-3 0  9996
2 36699  98.5442   2.6179 0095828  64.7437 296.3636 14.23584616683748
FENGYUN 1C DEB          
1 36701U 99025DZX 24366.26987528  .00007348  00000+0  67187-2 0  9992
2 36701 102.7477 203.3016 0267675 318.3325  39.7689 13.68635031563945
FENGYUN 1C DEB          
1 36707U 99025EAD 24365.35166415  .00004492  00000+0  22829-2 0  9992
2 36707  98.7880  50.5079 0049736  35.9868 324.4638 14.15730551591613
FENGYUN 1C DEB          
1 36710U 99025EAG 24364.90634436  .00014632  00000+0  40744-2 0  9992
2 36710  98.4137  58.6245 0073912 159.3833 201.0368 14.44827743853487
FENGYUN 1C DEB          
1 36711U 99025EAH 24365.53744777  .00022450  00000+0  76413-2 0  9992
2 36711 100.8033 290.0703 0115100  86.3656 275.0675 14.32830750836752
FENGYUN 1C DEB          
1 36713U 99025EAK 24366.55903118  .00152581  00000+0  45269-2 0  9997
2 36713  98.4222 266.9316 0080303 185.6844 174.3491 15.31046319916628
FENGYUN 1C DEB          
1 36716U 99025EAN 24366.59104461  .00000904  00000+0  72573-3 0  9998
2 36716  99.2238 283.4971 0150303  80.4357 281.3748 13.88071066581288
FENGYUN 1C DEB          
1 36724U 99025EAW 24366.48170010  .00011317  00000+0  49353-2 0  9997
2 36724  99.4830   5.5851 0109132  97.1904  55.1863 14.20935497525461
FENGYUN 1C DEB          
1 36729U 99025EBB 24366.70779713  .00001353  00000+0  78565-3 0  9999
2 36729  98.6753 354.1581 0046803 156.2875 204.0467 14.09810433823750
FENGYUN 1C DEB          
1 36734U 99025EBG 24366.34702427  .00009353  00000+0  41853-2 0  9990
2 36734  99.0781  36.3837 0038134 136.0325 224.3896 14.22401680778035
FENGYUN 1C DEB          
1 36736U 99025EBJ 24364.45170754  .00007992  00000+0  35739-2 0  9997
2 36736  98.8282  71.0455 0062608  67.1480 293.6293 14.21823377836597
FENGYUN 1C DEB          
1 36743U 99025EBR 24366.37244674  .00008741  00000+0  36288-2 0  9994
2 36743  98.6967  51.3552 0050088 302.6233  57.0118 14.26011291557951
FENGYUN 1C DEB          
1 36986U 99025EBS 24366.62090135  .00010022  00000+0  53477-2 0  9996
2 36986  99.1627  58.8877 0091752 136.3688 224.4784 14.11313884768567
FENGYUN 1C DEB          
1 36987U 99025EBT 24365.30362378  .00001080  00000+0  14027-2 0  9994
2 36987 100.8548 212.1187 0319724 150.0608 211.9235 13.45401732562049
FENGYUN 1C DEB          
1 36994U 99025ECA 24366.68252150  .00000454  00000+0  37502-3 0  9998
2 36994  98.5965 347.8251 0115983 164.6851 195.7868 13.90573630760973
FENGYUN 1C DEB          
1 36995U 99025ECB 24366.47321333  .00000139  00000+0  11031-3 0  9995
2 36995  98.3848 266.1041 0038646 211.0035 148.8853 14.04747558586958
FENGYUN 1C DEB          
1 36996U 99025ECC 24366.74999817  .00010465  00000+0  44258-2 0  9993
2 36996  98.1921 182.4539 0262621 265.3233 103.6811 14.08786474548152
FENGYUN 1C DEB          
1 37003U 99025ECK 24366.36869941  .00002238  00000+0  16180-2 0  9997
2 37003  98.8810  37.0176 0097011  37.4923 335.2522 13.95350523558252
FENGYUN 1C DEB          
1 37006U 99025ECN 24365.32096410  .00012276  00000+0  22501-2 0  9995
2 37006  99.3370 212.4970 0267579 196.2617 162.9861 14.45339603600896
FENGYUN 1C DEB          
1 37008U 99025ECQ 24366.75392338  .00006573  00000+0  39249-2 0  9993
2 37008  99.1132 116.4197 0063694 141.9162 218.6533 14.06492290554487
FENGYUN 1C DEB          
1 37017U 99025ECZ 24366.03848961  .00022136  00000+0  46592-2 0  9994
2 37017  98.7617 296.6244 0300898 313.7315  43.9306 14.34867448561783
FENGYUN 1C DEB          
1 37021U 99025EDD 24365.91023329  .00006606  00000+0  21579-2 0  9990
2 37021  98.4105  27.8758 0181986 199.0630 285.0206 14.29879152650934
FENGYUN 1C DEB          
1 37028U 99025EDL 24365.47146519  .00010607  00000+0  50566-2 0  9999
2 37028  99.2621 250.8852 0036723   6.2774 353.8853 14.19081153555438
FENGYUN 1C DEB          
1 37036U 99025EDU 24366.24722387  .00001822  00000+0  11227-2 0  9997
2 37036  98.6994   7.7103 0123696 306.7462  52.2398 14.02986474588880
FENGYUN 1C DEB          
1 37044U 99025EEC 24365.09153514  .00006221  00000+0  30146-2 0  9997
2 37044  98.9489 128.6508 0528542 357.5609   2.2976 13.64050925791051
FENGYUN 1C DEB          
1 37046U 99025EEE 24366.83478143  .00005705  00000+0  25096-2 0  9994
2 37046  98.5636  24.3021 0050576 233.7489 125.9010 14.23159964592581
FENGYUN 1C DEB          
1 37048U 99025EEG 24365.96352164  .00000816  00000+0  85389-3 0  9993
2 37048  98.9310 249.2594 0254633 336.5757  33.4210 13.64672820574398
FENGYUN 1C DEB          
1 37054U 99025EEN 24365.23597542  .00002346  00000+0  10918-2 0  9996
2 37054  98.5185 354.4092 0101884  30.9387 329.7738 14.18734929834716
